ENTRYSAT                
1 44429U 98067QP  20021.17576317  .00008309  00000-0  12858-3 0  9992
2 44429  51.6409 356.4138 0003287 122.5535 237.5773 15.54988207 31426
VCC C                   
1 44430U 98067QQ  20021.16076389  .00009921  00000-0  14978-3 0  9993
2 44430  51.6416 356.3184 0003343 131.5948 228.5330 15.55416779 30246
VCC B                   
1 44431U 98067QR  20021.14028985  .00007611  00000-0  12030-3 0  9992
2 44431  51.6417 356.9297 0003593 131.7401 228.3898 15.54540464 31350
DUCHIFAT-3              
1 44854U 19089C   20021.01941162  .00000157  00000-0  19178-4 0  9994
2 44854  36.9682 255.4932 0009871 301.0114  58.9650 14.98952439  6010
